[{"OBJECT_NAME":"STARLINK-3584","OBJECT_ID":"2022-022AK","EPOCH":"2026-03-09T02:24:09.732960","MEAN_MOTION":15.08849631,"ECCENTRICITY":0.00010739,"INCLINATION":53.2182,"RA_OF_ASC_NODE":1.7687,"ARG_OF_PERICENTER":82.5729,"MEAN_ANOMALY":277.5385,"EPHEMERIS_TYPE":0,"CLASSIFICATION_TYPE":"U","NORAD_CAT_ID":51885,"ELEMENT_SET_NO":999,"REV_AT_EPOCH":22315,"BSTAR":0.00028848419,"MEAN_MOTION_DOT":4.308e-5,"MEAN_MOTION_DDOT":0},{"OBJECT_NAME":"FENGYUN 1C DEB","OBJECT_ID":"1999-025DVA","EPOCH":"2026-03-08T04:27:49.439232","MEAN_MOTION":15.15496966,"ECCENTRICITY":0.00338373,"INCLINATION":98.8203,"RA_OF_ASC_NODE":206.4896,"ARG_OF_PERICENTER":4.2711,"MEAN_ANOMALY":355.88,"EPHEMERIS_TYPE":0,"CLASSIFICATION_TYPE":"U","NORAD_CAT_ID":36225,"ELEMENT_SET_NO":999,"REV_AT_EPOCH":68062,"BSTAR":0.0036229129,"MEAN_MOTION_DOT":0.00070122,"MEAN_MOTION_DDOT":0}]
